0 FENGYUN 1C DEB
1 30696U 99025ARE 13281.49037016  .00001401  00000-0  54620-3 0  7033
2 30696 098.7820 282.2639 0111751 310.6998 201.6791 14.27960896345756
0 FENGYUN 1C DEB
1 30696U 99025ARE 13282.81601973  .00001399  00000-0  54541-3 0  7048
2 30696 098.7818 283.5973 0111667 306.7954 176.4449 14.27969907345944
0 FENGYUN 1C DEB
1 30696U 99025ARE 13283.99361483  .00001766  00000-0  68374-3 0  7055
2 30696 098.7816 284.7817 0111638 303.3361 110.1252 14.27973347346115
0 FENGYUN 1C DEB
1 30696U 99025ARE 13285.48446773  .00001446  00000-0  56316-3 0  7066
2 30696 098.7815 286.2811 0111603 298.9455 214.2109 14.27978940346324
0 FENGYUN 1C DEB
1 30696U 99025ARE 13286.52982205  .00001512  00000-0  58780-3 0  7079
2 30696 098.7814 287.3324 0111572 295.8721 188.1196 14.27981992346473
0 FENGYUN 1C DEB
1 30696U 99025ARE 13287.86014186  .00001953  00000-0  75407-3 0  7086
2 30696 098.7814 288.6703 0111533 291.9521 186.9911 14.27988739346668
0 FENGYUN 1C DEB
1 30696U 99025ARE 13288.96827410  .00002607  00000-0  10008-2 0  7093
2 30696 098.7809 289.7843 0111548 288.7492 123.6172 14.27992110346829
0 FENGYUN 1C DEB
1 30696U 99025ARE 13290.46156880  .00002291  00000-0  88137-3 0  7107
2 30696 098.7811 291.2858 0111514 284.3452 240.3733 14.27999236347037
0 FENGYUN 1C DEB
1 30696U 99025ARE 13291.51120300  .00002189  00000-0  84316-3 0  7114
2 30696 098.7812 292.3413 0111491 281.2392 236.3859 14.28002802347185
0 FENGYUN 1C DEB
1 30696U 99025ARE 13292.83561581  .00002231  00000-0  85856-3 0  7129
2 30696 098.7815 293.6732 0111500 277.3471 204.9890 14.28007822347375
0 FENGYUN 1C DEB
1 30696U 99025ARE 13293.94396712  .00002460  00000-0  94481-3 0  7133
2 30696 098.7818 294.7877 0111490 274.0924 142.8697 14.28011866347531
0 FENGYUN 1C DEB
1 30696U 99025ARE 13294.99445179  .00002647  00000-0  10152-2 0  7141
2 30696 098.7820 295.8441 0111483 271.0011 143.2899 14.28015461347689
